H1 CPF 01  gfz 2021 08 14 00  7261 terrasarx 
H2 0702601  6201 31698    2021 08 14 00 59 42 2021 08 19 00 00 42   120 1 1  0 0 0
H9
10 0 59443   9342.000000  0   -1345886.117  -2963042.342  -6078364.412
10 0 59443   9462.000000  0   -1910752.643  -3518655.932  -5612693.321
10 0 59443   9582.000000  0   -2451558.134  -4003520.884  -5048907.232
10 0 59443   9702.000000  0   -2957564.585  -4409665.510  -4396772.910
10 0 59443   9822.000000  0   -3418490.980  -4730649.474  -3667619.427
10 0 59443   9942.000000  0   -3824723.146  -4961673.303  -2874150.063
10 0 59443  10062.000000  0   -4167516.743  -5099657.915  -2030227.048
10 0 59443  10182.000000  0   -4439188.077  -5143291.138  -1150631.539
10 0 59443  10302.000000  0   -4633287.489  -5093039.630   -250803.007
10 0 59443  10422.000000  0   -4744750.486  -4951125.334    653436.949
10 0 59443  10542.000000  0   -4770022.660  -4721466.156   1546171.009
10 0 59443  10662.000000  0   -4707153.980  -4409581.123   2411676.060
10 0 59443  10782.000000  0   -4555860.183  -4022463.239   3234708.760
10 0 59443  10902.000000  0   -4317550.495  -3568423.776   4000780.976
10 0 59443  11022.000000  0   -3995320.583  -3056911.782   4696420.223
10 0 59443  11142.000000  0   -3593910.496  -2498312.906   5309407.818
10 0 59443  11262.000000  0   -3119631.105  -1903735.046   5828990.988
10 0 59443  11382.000000  0   -2580260.422  -1284785.049   6246068.416
10 0 59443  11502.000000  0   -1984910.983   -653338.980   6553345.702
10 0 59443  11622.000000  0   -1343870.453    -21311.506   6745456.539
10 0 59443  11742.000000  0    -668421.129    599567.841   6819048.762
10 0 59443  11862.000000  0      29358.395   1197971.011   6772839.396
10 0 59443  11982.000000  0     736808.714   1763177.713   6607635.977
10 0 59443  12102.000000  0    1440918.831   2285267.632   6326323.073
10 0 59443  12222.000000  0    2128564.458   2755294.355   5933814.522
10 0 59443  12342.000000  0    2786752.306   3165440.061   5436973.770
10 0 59443  12462.000000  0    3402867.982   3509149.181   4844500.630
10 0 59443  12582.000000  0    3964920.807   3781236.609   4166782.936
10 0 59443  12702.000000  0    4461780.039   3977969.011   3415720.908
10 0 59443  12822.000000  0    4883403.891   4097119.720   2604520.335
10 0 59443  12942.000000  0    5221046.874   4137990.475   1747457.800
10 0 59443  13062.000000  0    5467446.099   4101402.982    859626.144
10 0 59443  13182.000000  0    5616979.344   3989658.911    -43338.611
10 0 59443  13302.000000  0    5665790.499   3806469.193   -945541.740
10 0 59443  13422.000000  0    5611879.307   3556854.447  -1831118.220
10 0 59443  13542.000000  0    5455153.568   3247019.196  -2684519.480
10 0 59443  13662.000000  0    5197442.665   2884203.895  -3490791.400
10 0 59443  13782.000000  0    4842473.994   2476519.250  -4235838.985
10 0 59443  13902.000000  0    4395811.088   2032765.486  -4906673.264
10 0 59443  14022.000000  0    3864756.171   1562241.574  -5491631.988
10 0 59443  14142.000000  0    3258222.016   1074551.183  -5980573.941
10 0 59443  14262.000000  0    2586574.797    579408.230  -6365044.895
10 0 59443  14382.000000  0    1861451.700     86446.079  -6638411.804
10 0 59443  14502.000000  0    1095558.948   -394965.678  -6795966.346
10 0 59443  14622.000000  0     302450.703   -855895.475  -6834998.857
10 0 59443  14742.000000  0    -503707.375  -1288011.116  -6754838.107
10 0 59443  14862.000000  0   -1308384.322  -1683725.857  -6556861.418
10 0 59443  14982.000000  0   -2096939.910  -2036328.918  -6244474.392
10 0 59443  15102.000000  0   -2854885.275  -2340097.796  -5823057.858
10 0 59443  15222.000000  0   -3568144.193  -2590390.935  -5299885.288
10 0 59443  15342.000000  0   -4223314.526  -2783720.680  -4684009.690
10 0 59443  15462.000000  0   -4807923.177  -2917803.535  -3986117.617
10 0 59443  15582.000000  0   -5310668.892  -2991586.518  -3218353.561
10 0 59443  15702.000000  0   -5721649.050  -3005249.116  -2394115.931
10 0 59443  15822.000000  0   -6032564.066  -2960179.909  -1527826.615
10 0 59443  15942.000000  0   -6236893.916  -2858928.307   -634678.643
10 0 59443  16062.000000  0   -6330042.205  -2705131.704    269634.105
10 0 59443  16182.000000  0   -6309443.647  -2503419.762   1169199.098
10 0 59443  16302.000000  0   -6174631.220  -2259298.077   2048174.747
10 0 59443  16422.000000  0   -5927258.890  -1979013.525   2891078.943
10 0 59443  16542.000000  0   -5571082.920  -1669405.562   3683068.958
10 0 59443  16662.000000  0   -5111900.279  -1337747.030   4410210.455
10 0 59443  16782.000000  0   -4557444.600   -991578.099   5059724.901
10 0 59443  16902.000000  0   -3917247.634   -638539.316   5620212.466
10 0 59443  17022.000000  0   -3202467.585   -286206.301   6081850.181
10 0 59443  17142.000000  0   -2425686.154     58070.876   6436559.893
10 0 59443  17262.000000  0   -1600680.063    387318.260   6678143.098
10 0 59443  17382.000000  0    -742172.867    695076.375   6802382.873
10 0 59443  17502.000000  0     134428.854    975525.388   6807112.445
10 0 59443  17622.000000  0    1013311.245   1223594.159   6692250.277
10 0 59443  17742.000000  0    1878537.384   1435052.130   6459801.528
10 0 59443  17862.000000  0    2714335.276   1606581.682   6113825.016
10 0 59443  17982.000000  0    3505385.759   1735830.247   5660367.587
10 0 59443  18102.000000  0    4237106.308   1821441.343   5107363.746
10 0 59443  18222.000000  0    4895923.185   1863064.511   4464503.188
10 0 59443  18342.000000  0    5469531.312   1861344.456   3743068.344
10 0 59443  18462.000000  0    5947134.666   1817887.531   2955737.330
10 0 59443  18582.000000  0    6319656.811   1735207.270   2116361.233
10 0 59443  18702.000000  0    6579923.705   1616649.919   1239718.645
10 0 59443  18822.000000  0    6722808.427   1466301.359    341248.734
10 0 59443  18942.000000  0    6745336.175   1288878.542   -563228.010
10 0 59443  19062.000000  0    6646745.874   1089607.367  -1457798.241
10 0 59443  19182.000000  0    6428506.243    874089.248  -2326743.346
10 0 59443  19302.000000  0    6094288.478    648161.116  -3154822.430
10 0 59443  19422.000000  0    5649894.528    417753.277  -3927544.065
10 0 59443  19542.000000  0    5103144.002    188747.711  -4631421.198
10 0 59443  19662.000000  0    4463722.766    -33159.766  -5254202.674
10 0 59443  19782.000000  0    3743000.090   -242589.401  -5785078.601
10 0 59443  19902.000000  0    2953818.157   -434597.280  -6214859.132
10 0 59443  20022.000000  0    2110256.403   -604782.969  -6536123.041
10 0 59443  20142.000000  0    1227378.433   -749382.554  -6743333.512
10 0 59443  20262.000000  0     320965.307   -865346.485  -6832924.816
10 0 59443  20382.000000  0    -592762.830   -950399.605  -6803356.578
10 0 59443  20502.000000  0   -1497429.831  -1003083.809  -6655136.970
10 0 59443  20622.000000  0   -2376790.698  -1022782.452  -6390815.330
10 0 59443  20742.000000  0   -3215016.774  -1009726.107  -6014941.641
10 0 59443  20862.000000  0   -3996974.877   -964980.067  -5533997.359
10 0 59443  20982.000000  0   -4708500.916   -890413.434  -4956295.369
10 0 59443  21102.000000  0   -5336659.660   -788649.909  -4291847.288
10 0 59443  21222.000000  0   -5869986.731   -663001.753  -3552201.143
10 0 59443  21342.000000  0   -6298708.827   -517387.043  -2750249.381
10 0 59443  21462.000000  0   -6614934.994   -356231.788  -1900009.165
10 0 59443  21582.000000  0   -6812815.270   -184360.017  -1016379.496
10 0 59443  21702.000000  0   -6888662.076     -6872.309   -114876.431
10 0 59443  21822.000000  0   -6841026.100    170983.118    788646.106
10 0 59443  21942.000000  0   -6670729.579    343943.157   1678281.857
10 0 59443  22062.000000  0   -6380854.429    506863.054   2538361.438
10 0 59443  22182.000000  0   -5976684.038    654847.090   3353737.523
10 0 59443  22302.000000  0   -5465600.046    783373.315   4110059.068
10 0 59443  22422.000000  0   -4856938.125    888408.802   4794027.845
10 0 59443  22542.000000  0   -4161807.008    966512.596   5393633.011
10 0 59443  22662.000000  0   -3392876.337   1014924.237   5898359.534
10 0 59443  22782.000000  0   -2564137.535   1031635.876   6299369.136
10 0 59443  22902.000000  0   -1690642.157   1015446.729   6589650.408
10 0 59443  23022.000000  0    -788222.804    965999.257   6764134.700
10 0 59443  23142.000000  0     126795.374    883795.553   6819777.921
10 0 59443  23262.000000  0    1037889.219    770194.149   6755609.830
10 0 59443  23382.000000  0    1928634.513    627387.737   6572749.908
10 0 59443  23502.000000  0    2783000.781    458361.733   6274389.412
10 0 59443  23622.000000  0    3585640.320    266834.202   5865740.255
10 0 59443  23742.000000  0    4322166.679     57177.852   5353949.160
10 0 59443  23862.000000  0    4979416.943   -165674.452   4747978.698
10 0 59443  23982.000000  0    5545693.813   -396339.030   4058456.117
10 0 59443  24102.000000  0    6010983.253   -629103.250   3297491.637
10 0 59443  24222.000000  0    6367142.601   -858057.473   2478467.247
10 0 59443  24342.000000  0    6608052.720  -1077233.898   1615798.815
10 0 59443  24462.000000  0    6729729.947  -1280749.152    724678.256
10 0 59443  24582.000000  0    6730398.443  -1462947.725   -179200.068
10 0 59443  24702.000000  0    6610516.940  -1618542.038  -1079925.811
10 0 59443  24822.000000  0    6372759.167  -1742744.529  -1961661.341
10 0 59443  24942.000000  0    6021950.301  -1831389.554  -2808928.470
10 0 59443  25062.000000  0    5564960.279  -1881041.544  -3606885.231
10 0 59443  25182.000000  0    5010558.797  -1889086.868  -4341587.419
10 0 59443  25302.000000  0    4369236.316  -1853807.330  -5000230.684
10 0 59443  25422.000000  0    3652994.665  -1774434.634  -5571368.883
10 0 59443  25542.000000  0    2875112.875  -1651184.331  -6045103.955
10 0 59443  25662.000000  0    2049896.072  -1485268.444  -6413246.252
10 0 59443  25782.000000  0    1192410.635  -1278887.091  -6669446.200
99
